CCSDS_OMM_VERS = 2.0
CREATION_DATE  = 
ORIGINATOR     = 

OBJECT_NAME    = RSP-03
OBJECT_ID      = 1998-067XL
CENTER_NAME    = EARTH
REF_FRAME      = TEME
TIME_SYSTEM    = UTC
MEAN_ELEMENT_THEORY = SGP/SGP4

EPOCH          = 2026-02-07T11:26:39.615360
MEAN_MOTION    = 16.00585276
ECCENTRICITY   = .0006904
INCLINATION    = 51.6160
RA_OF_ASC_NODE = 202.5294
ARG_OF_PERICENTER = 290.8987
MEAN_ANOMALY   = 69.1284

EPHEMERIS_TYPE = 0
CLASSIFICATION_TYPE = U
NORAD_CAT_ID   = 65732
ELEMENT_SET_NO = 999
REV_AT_EPOCH   = 2213
BSTAR          = .15666E-2
MEAN_MOTION_DOT = .849066E-2
MEAN_MOTION_DDOT = .3527E-3

CCSDS_OMM_VERS = 2.0
CREATION_DATE  = 
ORIGINATOR     = 

OBJECT_NAME    = YOTSUBA-KULOVER
OBJECT_ID      = 1998-067XN
CENTER_NAME    = EARTH
REF_FRAME      = TEME
TIME_SYSTEM    = UTC
MEAN_ELEMENT_THEORY = SGP/SGP4

EPOCH          = 2026-02-06T17:46:24.079872
MEAN_MOTION    = 15.70377871
ECCENTRICITY   = .0004077
INCLINATION    = 51.6250
RA_OF_ASC_NODE = 216.4844
ARG_OF_PERICENTER = 240.0353
MEAN_ANOMALY   = 120.0240

EPHEMERIS_TYPE = 0
CLASSIFICATION_TYPE = U
NORAD_CAT_ID   = 65941
ELEMENT_SET_NO = 999
REV_AT_EPOCH   = 1862
BSTAR          = .10771593E-2
MEAN_MOTION_DOT = .136055E-2
MEAN_MOTION_DDOT = 0

CCSDS_OMM_VERS = 2.0
CREATION_DATE  = 
ORIGINATOR     = 

OBJECT_NAME    = BOTAN
OBJECT_ID      = 1998-067XP
CENTER_NAME    = EARTH
REF_FRAME      = TEME
TIME_SYSTEM    = UTC
MEAN_ELEMENT_THEORY = SGP/SGP4

EPOCH          = 2026-02-06T18:11:44.025216
MEAN_MOTION    = 15.83205172
ECCENTRICITY   = .00058785
INCLINATION    = 51.6190
RA_OF_ASC_NODE = 212.8086
ARG_OF_PERICENTER = 265.4607
MEAN_ANOMALY   = 94.5725

EPHEMERIS_TYPE = 0
CLASSIFICATION_TYPE = U
NORAD_CAT_ID   = 65942
ELEMENT_SET_NO = 999
REV_AT_EPOCH   = 1867
BSTAR          = .1551948E-2
MEAN_MOTION_DOT = .356023E-2
MEAN_MOTION_DDOT = 0

CCSDS_OMM_VERS = 2.0
CREATION_DATE  = 
ORIGINATOR     = 

OBJECT_NAME    = E-KAGAKU-1
OBJECT_ID      = 1998-067XQ
CENTER_NAME    = EARTH
REF_FRAME      = TEME
TIME_SYSTEM    = UTC
MEAN_ELEMENT_THEORY = SGP/SGP4

EPOCH          = 2026-02-06T17:47:22.159680
MEAN_MOTION    = 15.70283698
ECCENTRICITY   = .0003395
INCLINATION    = 51.6264
RA_OF_ASC_NODE = 216.4987
ARG_OF_PERICENTER = 256.2680
MEAN_ANOMALY   = 103.7939

EPHEMERIS_TYPE = 0
CLASSIFICATION_TYPE = U
NORAD_CAT_ID   = 65943
ELEMENT_SET_NO = 999
REV_AT_EPOCH   = 1862
BSTAR          = .10946795E-2
MEAN_MOTION_DOT = .137746E-2
MEAN_MOTION_DDOT = 0

CCSDS_OMM_VERS = 2.0
CREATION_DATE  = 
ORIGINATOR     = 

OBJECT_NAME    = HRC MONOBLOCK CAMERA
OBJECT_ID      = 1998-067XR
CENTER_NAME    = EARTH
REF_FRAME      = TEME
TIME_SYSTEM    = UTC
MEAN_ELEMENT_THEORY = SGP/SGP4

EPOCH          = 2026-02-06T18:28:45.058944
MEAN_MOTION    = 15.59019582
ECCENTRICITY   = .00007625
INCLINATION    = 51.6277
RA_OF_ASC_NODE = 221.1917
ARG_OF_PERICENTER = 351.8886
MEAN_ANOMALY   = 8.2094

EPHEMERIS_TYPE = 0
CLASSIFICATION_TYPE = U
NORAD_CAT_ID   = 66052
ELEMENT_SET_NO = 999
REV_AT_EPOCH   = 1756
BSTAR          = .67620504E-3
MEAN_MOTION_DOT = .53545E-3
MEAN_MOTION_DDOT = 0

CCSDS_OMM_VERS = 2.0
CREATION_DATE  = 
ORIGINATOR     = 

OBJECT_NAME    = HTV-X1
OBJECT_ID      = 2025-241A
CENTER_NAME    = EARTH
REF_FRAME      = TEME
TIME_SYSTEM    = UTC
MEAN_ELEMENT_THEORY = SGP/SGP4

EPOCH          = 2026-02-06T23:40:36.733728
MEAN_MOTION    = 15.48450046
ECCENTRICITY   = .00111427
INCLINATION    = 51.6315
RA_OF_ASC_NODE = 224.1327
ARG_OF_PERICENTER = 71.6186
MEAN_ANOMALY   = 288.6013

EPHEMERIS_TYPE = 0
CLASSIFICATION_TYPE = U
NORAD_CAT_ID   = 66174
ELEMENT_SET_NO = 999
REV_AT_EPOCH   = 51
BSTAR          = .22893974E-3
MEAN_MOTION_DOT = .11965E-3
MEAN_MOTION_DDOT = 0

CCSDS_OMM_VERS = 2.0
CREATION_DATE  = 
ORIGINATOR     = 

OBJECT_NAME    = SZ-21 MODULE
OBJECT_ID      = 2025-246C
CENTER_NAME    = EARTH
REF_FRAME      = TEME
TIME_SYSTEM    = UTC
MEAN_ELEMENT_THEORY = SGP/SGP4

EPOCH          = 2026-02-07T01:01:16.333824
MEAN_MOTION    = 15.66234853
ECCENTRICITY   = .00029827
INCLINATION    = 41.4765
RA_OF_ASC_NODE = 31.6776
ARG_OF_PERICENTER = 280.6957
MEAN_ANOMALY   = 79.3548

EPHEMERIS_TYPE = 0
CLASSIFICATION_TYPE = U
NORAD_CAT_ID   = 66515
ELEMENT_SET_NO = 999
REV_AT_EPOCH   = 1326
BSTAR          = .37768938E-3
MEAN_MOTION_DOT = .3998E-3
MEAN_MOTION_DDOT = 0

CCSDS_OMM_VERS = 2.0
CREATION_DATE  = 
ORIGINATOR     = 

OBJECT_NAME    = SHENZHOU-22
OBJECT_ID      = 2025-272A
CENTER_NAME    = EARTH
REF_FRAME      = TEME
TIME_SYSTEM    = UTC
MEAN_ELEMENT_THEORY = SGP/SGP4

EPOCH          = 2026-02-07T07:20:44.073888
MEAN_MOTION    = 15.59315504
ECCENTRICITY   = .00051589
INCLINATION    = 41.4681
RA_OF_ASC_NODE = 32.8450
ARG_OF_PERICENTER = 20.6768
MEAN_ANOMALY   = 339.4279

EPHEMERIS_TYPE = 0
CLASSIFICATION_TYPE = U
NORAD_CAT_ID   = 66645
ELEMENT_SET_NO = 999
REV_AT_EPOCH   = 26764
BSTAR          = .31114621E-3
MEAN_MOTION_DOT = .24969E-3
MEAN_MOTION_DDOT = 0

CCSDS_OMM_VERS = 2.0
CREATION_DATE  = 
ORIGINATOR     = 

OBJECT_NAME    = SOYUZ-MS 28
OBJECT_ID      = 2025-275A
CENTER_NAME    = EARTH
REF_FRAME      = TEME
TIME_SYSTEM    = UTC
MEAN_ELEMENT_THEORY = SGP/SGP4

EPOCH          = 2026-02-07T10:31:09.231456
MEAN_MOTION    = 15.48462308
ECCENTRICITY   = .001112
INCLINATION    = 51.6316
RA_OF_ASC_NODE = 221.8995
ARG_OF_PERICENTER = 73.2114
MEAN_ANOMALY   = 287.0093

EPHEMERIS_TYPE = 0
CLASSIFICATION_TYPE = U
NORAD_CAT_ID   = 66664
ELEMENT_SET_NO = 999
REV_AT_EPOCH   = 55164
BSTAR          = .25259E-3
MEAN_MOTION_DOT = .13256E-3
MEAN_MOTION_DDOT = 0

CCSDS_OMM_VERS = 2.0
CREATION_DATE  = 
ORIGINATOR     = 

OBJECT_NAME    = DUPLEX
OBJECT_ID      = 1998-067XS
CENTER_NAME    = EARTH
REF_FRAME      = TEME
TIME_SYSTEM    = UTC
MEAN_ELEMENT_THEORY = SGP/SGP4

EPOCH          = 2026-02-07T12:17:58.247808
MEAN_MOTION    = 15.54105616
ECCENTRICITY   = .0001368
INCLINATION    = 51.6288
RA_OF_ASC_NODE = 220.1491
ARG_OF_PERICENTER = 83.1919
MEAN_ANOMALY   = 276.9227

EPHEMERIS_TYPE = 0
CLASSIFICATION_TYPE = U
NORAD_CAT_ID   = 66906
ELEMENT_SET_NO = 999
REV_AT_EPOCH   = 1043
BSTAR          = .65342E-3
MEAN_MOTION_DOT = .42973E-3
MEAN_MOTION_DDOT = 0

CCSDS_OMM_VERS = 2.0
CREATION_DATE  = 
ORIGINATOR     = 

OBJECT_NAME    = ISS OBJECT XT
OBJECT_ID      = 1998-067XT
CENTER_NAME    = EARTH
REF_FRAME      = TEME
TIME_SYSTEM    = UTC
MEAN_ELEMENT_THEORY = SGP/SGP4

EPOCH          = 2026-02-07T12:08:45.497760
MEAN_MOTION    = 15.61360236
ECCENTRICITY   = .0002114
INCLINATION    = 51.6269
RA_OF_ASC_NODE = 218.6048
ARG_OF_PERICENTER = 217.1792
MEAN_ANOMALY   = 142.9055

EPHEMERIS_TYPE = 0
CLASSIFICATION_TYPE = U
NORAD_CAT_ID   = 66907
ELEMENT_SET_NO = 999
REV_AT_EPOCH   = 1045
BSTAR          = .15833E-2
MEAN_MOTION_DOT = .139388E-2
MEAN_MOTION_DDOT = 0

CCSDS_OMM_VERS = 2.0
CREATION_DATE  = 
ORIGINATOR     = 

OBJECT_NAME    = ISS OBJECT XU
OBJECT_ID      = 1998-067XU
CENTER_NAME    = EARTH
REF_FRAME      = TEME
TIME_SYSTEM    = UTC
MEAN_ELEMENT_THEORY = SGP/SGP4

EPOCH          = 2026-02-07T12:07:57.410976
MEAN_MOTION    = 15.61395900
ECCENTRICITY   = .0001724
INCLINATION    = 51.6264
RA_OF_ASC_NODE = 218.5996
ARG_OF_PERICENTER = 222.4064
MEAN_ANOMALY   = 137.6796

EPHEMERIS_TYPE = 0
CLASSIFICATION_TYPE = U
NORAD_CAT_ID   = 66908
ELEMENT_SET_NO = 999
REV_AT_EPOCH   = 1045
BSTAR          = .15777E-2
MEAN_MOTION_DOT = .139077E-2
MEAN_MOTION_DDOT = 0

