RSP-03                  
1 65732U 98067XL  26038.47684740  .00849066  35270-3  15666-2 0  9991
2 65732  51.6160 202.5294 0006904 290.8987  69.1284 16.00585276 22138
YOTSUBA-KULOVER         
1 65941U 98067XN  26037.74055648  .00136055  00000+0  10772-2 0  9990
2 65941  51.6250 216.4844 0004077 240.0353 120.0240 15.70377871 18622
BOTAN                   
1 65942U 98067XP  26037.75814844  .00356023  00000+0  15519-2 0  9996
2 65942  51.6190 212.8086 0005878 265.4607  94.5725 15.83205172 18673
E-KAGAKU-1              
1 65943U 98067XQ  26037.74122870  .00137746  00000+0  10947-2 0  9996
2 65943  51.6264 216.4987 0003395 256.2680 103.7939 15.70283698 18627
HRC MONOBLOCK CAMERA    
1 66052U 98067XR  26037.76996596  .00053545  00000+0  67621-3 0  9990
2 66052  51.6277 221.1917 0000762 351.8886   8.2094 15.59019582 17563
HTV-X1                  
1 66174U 25241A   26037.98653627  .00011965  00000+0  22894-3 0  9991
2 66174  51.6315 224.1327 0011142  71.6186 288.6013 15.48450046   517
SZ-21 MODULE            
1 66515U 25246C   26038.04255016  .00039980  00000+0  37769-3 0  9997
2 66515  41.4765  31.6776 0002982 280.6957  79.3548 15.66234853 13261
SHENZHOU-22             
1 66645U 25272A   26038.30606567  .00024969  00000+0  31115-3 0  9990
2 66645  41.4681  32.8450 0005158  20.6768 339.4279 15.59315504267643
SOYUZ-MS 28             
1 66664U 25275A   26038.43830129  .00013256  00000+0  25259-3 0  9990
2 66664  51.6316 221.8995 0011120  73.2114 287.0093 15.48462308551642
DUPLEX                  
1 66906U 98067XS  26038.51247972  .00042973  00000+0  65342-3 0  9990
2 66906  51.6288 220.1491 0001368  83.1919 276.9227 15.54105616 10434
ISS OBJECT XT           
1 66907U 98067XT  26038.50608215  .00139388  00000+0  15833-2 0  9997
2 66907  51.6269 218.6048 0002114 217.1792 142.9055 15.61360236 10454
ISS OBJECT XU           
1 66908U 98067XU  26038.50552559  .00139077  00000+0  15777-2 0  9999
2 66908  51.6264 218.5996 0001724 222.4064 137.6796 15.61395900 10457
